{
  "type": "FeatureCollection",
  "generator": "overpass-turbo",
  "copyright": "The data included in this document is from www.openstreetmap.org. The data is made available under ODbL.",
  "timestamp": "2026-09-03T16:20:21Z",
  "features": [
    {
      "type": "Feature",
      "properties": {
        "@id": "way/22530169",
        "natural": "coastline",
        "source": "PGS"
      },
      "geometry": {
        "type": "LineString",
        "coordinates": [
          [
            131.8752989,
            42.949206
          ],
          [
            131.8753515,
            42.9492414
          ],
          [
            131.8754625,
            42.9493159
          ],
          [
            131.8755966,
            42.9493709
          ],
          [
            131.8758917,
            42.949524
          ],
          [
            131.8764019,
            42.9501491
          ],
          [
            131.8767964,
            42.9504829
          ],
          [
            131.877033,
            42.9503735
          ],
          [
            131.87708,
            42.95058
          ],
          [
            131.8772385,
            42.9508384
          ],
          [
            131.8771949,
            42.9511255
          ],
          [
            131.8773692,
            42.9511985
          ],
          [
            131.877774,
            42.9516816
          ],
          [
            131.8778212,
            42.9522704
          ],
          [
            131.8777727,
            42.9525969
          ],
          [
            131.877915,
            42.9528823
          ],
          [
            131.8778351,
            42.9531868
          ],
          [
            131.8778538,
            42.9534016
          ],
          [
            131.8778214,
            42.9536824
          ],
          [
            131.8778026,
            42.9538918
          ],
          [
            131.8777669,
            42.9542555
          ],
          [
            131.8777343,
            42.9545934
          ],
          [
            131.8777813,
            42.9548608
          ],
          [
            131.8778454,
            42.9550493
          ],
          [
            131.8781297,
            42.9554612
          ],
          [
            131.8782949,
            42.9557416
          ],
          [
            131.8783496,
            42.9562244
          ],
          [
            131.8782441,
            42.9568862
          ],
          [
            131.8782318,
            42.9573357
          ],
          [
            131.8783958,
            42.9576324
          ],
          [
            131.8787104,
            42.9583905
          ],
          [
            131.8788535,
            42.9585917
          ],
          [
            131.8792861,
            42.9590671
          ],
          [
            131.8796693,
            42.9591357
          ],
          [
            131.8796565,
            42.9592294
          ],
          [
            131.8797377,
            42.9593815
          ],
          [
            131.8803981,
            42.9591557
          ],
          [
            131.8805322,
            42.9592674
          ],
          [
            131.8801825,
            42.9594515
          ],
          [
            131.8807841,
            42.9595366
          ],
          [
            131.8808646,
            42.9598427
          ],
          [
            131.881063,
            42.9603065
          ],
          [
            131.880898,
            42.9605077
          ],
          [
            131.8810499,
            42.96074
          ],
          [
            131.8812301,
            42.96086
          ],
          [
            131.8812822,
            42.960944
          ],
          [
            131.8812035,
            42.9610852
          ],
          [
            131.8814083,
            42.9611994
          ],
          [
            131.8815721,
            42.9611429
          ],
          [
            131.8816949,
            42.9611507
          ],
          [
            131.8817442,
            42.9612103
          ],
          [
            131.88144,
            42.9615
          ],
          [
            131.8812421,
            42.9618641
          ],
          [
            131.88151,
            42.96304
          ],
          [
            131.88152,
            42.9633
          ],
          [
            131.8817079,
            42.963735
          ],
          [
            131.8821572,
            42.9641563
          ],
          [
            131.8826937,
            42.9645175
          ],
          [
            131.882944,
            42.9648922
          ],
          [
            131.8833699,
            42.9655699
          ],
          [
            131.883509,
            42.9658678
          ],
          [
            131.8836592,
            42.966072
          ],
          [
            131.8839382,
            42.9662133
          ],
          [
            131.884099,
            42.9662464
          ],
          [
            131.8846248,
            42.9663546
          ],
          [
            131.88534,
            42.96641
          ],
          [
            131.8863354,
            42.9662817
          ],
          [
            131.8867315,
            42.9661925
          ],
          [
            131.8871722,
            42.9660933
          ],
          [
            131.88776,
            42.96583
          ],
          [
            131.8880157,
            42.9657254
          ],
          [
            131.8882658,
            42.9656231
          ],
          [
            131.8883585,
            42.9655852
          ],
          [
            131.8887386,
            42.9652454
          ],
          [
            131.8889657,
            42.9650317
          ],
          [
            131.8891314,
            42.9648455
          ],
          [
            131.8892248,
            42.9646337
          ],
          [
            131.8892599,
            42.96438
          ],
          [
            131.8892248,
            42.964246
          ],
          [
            131.8890707,
            42.9639522
          ],
          [
            131.8886717,
            42.9635406
          ],
          [
            131.8883739,
            42.9630213
          ],
          [
            131.8884236,
            42.9628754
          ],
          [
            131.8883705,
            42.9621438
          ],
          [
            131.8885648,
            42.9619733
          ],
          [
            131.8886538,
            42.9614517
          ],
          [
            131.8886393,
            42.9611466
          ],
          [
            131.8888301,
            42.9610668
          ],
          [
            131.8886757,
            42.96098
          ],
          [
            131.8888431,
            42.9608047
          ],
          [
            131.8886743,
            42.9608005
          ],
          [
            131.8886923,
            42.9606947
          ],
          [
            131.8888105,
            42.960581
          ],
          [
            131.888999,
            42.9605276
          ],
          [
            131.8888638,
            42.9603183
          ],
          [
            131.8889273,
            42.9600526
          ],
          [
            131.8891091,
            42.9598769
          ],
          [
            131.8892373,
            42.9600024
          ],
          [
            131.8896958,
            42.9600244
          ],
          [
            131.88977,
            42.96027
          ],
          [
            131.8899011,
            42.96039
          ],
          [
            131.8900631,
            42.96051
          ],
          [
            131.8901474,
            42.960652
          ],
          [
            131.8903435,
            42.9608274
          ],
          [
            131.8906659,
            42.9609816
          ],
          [
            131.8912882,
            42.9610758
          ],
          [
            131.8917602,
            42.9608717
          ],
          [
            131.8923186,
            42.9605546
          ],
          [
            131.8924025,
            42.9604391
          ],
          [
            131.8926018,
            42.9604075
          ],
          [
            131.8928433,
            42.9604844
          ],
          [
            131.8929961,
            42.9608162
          ],
          [
            131.8929982,
            42.9610197
          ],
          [
            131.8931253,
            42.9612954
          ],
          [
            131.8930691,
            42.9614998
          ],
          [
            131.8933374,
            42.9616812
          ],
          [
            131.8938297,
            42.9619211
          ],
          [
            131.8943909,
            42.9622272
          ],
          [
            131.8945076,
            42.9621425
          ],
          [
            131.8945536,
            42.9621091
          ],
          [
            131.8946037,
            42.9620727
          ],
          [
            131.8951813,
            42.9618944
          ],
          [
            131.8954856,
            42.962068
          ],
          [
            131.8956422,
            42.9620415
          ],
          [
            131.895999,
            42.9619592
          ],
          [
            131.8962498,
            42.962258
          ],
          [
            131.8961898,
            42.9626921
          ],
          [
            131.8968453,
            42.9630457
          ],
          [
            131.89742,
            42.96328
          ],
          [
            131.8981301,
            42.9635536
          ],
          [
            131.8987272,
            42.9638558
          ],
          [
            131.8987733,
            42.9638663
          ],
          [
            131.899725,
            42.9640834
          ],
          [
            131.9005321,
            42.9640952
          ],
          [
            131.9007978,
            42.9640991
          ],
          [
            131.9014845,
            42.9639892
          ],
          [
            131.9021501,
            42.9635401
          ],
          [
            131.90232,
            42.96341
          ],
          [
            131.9026658,
            42.9631305
          ],
          [
            131.9027566,
            42.9630571
          ],
          [
            131.9031599,
            42.96275
          ],
          [
            131.9034207,
            42.9624065
          ],
          [
            131.9033195,
            42.9620539
          ],
          [
            131.9035514,
            42.9617669
          ],
          [
            131.9037436,
            42.9617852
          ],
          [
            131.9039307,
            42.9616574
          ],
          [
            131.903749,
            42.9615823
          ],
          [
            131.9038978,
            42.9612786
          ],
          [
            131.9040742,
            42.9614134
          ],
          [
            131.9038751,
            42.9609485
          ],
          [
            131.9039953,
            42.9607854
          ],
          [
            131.9041458,
            42.9609274
          ],
          [
            131.9041727,
            42.9607601
          ],
          [
            131.9040664,
            42.9606663
          ],
          [
            131.9041871,
            42.9605729
          ],
          [
            131.9040206,
            42.9603546
          ],
          [
            131.9043461,
            42.960259
          ],
          [
            131.9040896,
            42.9601132
          ],
          [
            131.9042398,
            42.9596817
          ],
          [
            131.9043608,
            42.959441
          ],
          [
            131.9043234,
            42.9593472
          ],
          [
            131.9044003,
            42.9591971
          ],
          [
            131.9044461,
            42.9590682
          ],
          [
            131.9044809,
            42.9591722
          ],
          [
            131.9045258,
            42.9592265
          ],
          [
            131.9046187,
            42.9591322
          ],
          [
            131.9045571,
            42.9590206
          ],
          [
            131.9046062,
            42.9589865
          ],
          [
            131.9045753,
            42.958904
          ],
          [
            131.9046922,
            42.9586725
          ],
          [
            131.9048103,
            42.9586446
          ],
          [
            131.9049274,
            42.9586889
          ],
          [
            131.9059301,
            42.9584401
          ],
          [
            131.9066099,
            42.95817
          ],
          [
            131.9069599,
            42.95816
          ],
          [
            131.9072245,
            42.9583596
          ],
          [
            131.9072319,
            42.9585777
          ],
          [
            131.9073774,
            42.9587863
          ],
          [
            131.9073576,
            42.9593022
          ],
          [
            131.9074021,
            42.9596103
          ],
          [
            131.9073096,
            42.9599913
          ],
          [
            131.9072501,
            42.96059
          ],
          [
            131.9071471,
            42.9609022
          ],
          [
            131.9069846,
            42.961424
          ],
          [
            131.9067345,
            42.9619561
          ],
          [
            131.906476,
            42.9623477
          ],
          [
            131.9063,
            42.9626699
          ],
          [
            131.9060539,
            42.9630731
          ],
          [
            131.9057022,
            42.9634694
          ],
          [
            131.9053981,
            42.9637422
          ],
          [
            131.9052813,
            42.9638904
          ]
        ]
      },
      "id": "way/22530169"
    },
    {
      "type": "Feature",
      "properties": {
        "@id": "way/292028115",
        "natural": "coastline",
        "source": "PGS"
      },
      "geometry": {
        "type": "LineString",
        "coordinates": [
          [
            131.8769634,
            42.9621275
          ],
          [
            131.8769672,
            42.961792
          ],
          [
            131.8767009,
            42.9604718
          ],
          [
            131.8762044,
            42.9598959
          ],
          [
            131.8759663,
            42.9597947
          ],
          [
            131.8756509,
            42.9597824
          ],
          [
            131.8750916,
            42.9598039
          ],
          [
            131.8750285,
            42.9599085
          ],
          [
            131.874894,
            42.9598962
          ],
          [
            131.8747775,
            42.9598285
          ],
          [
            131.8743052,
            42.959927
          ],
          [
            131.8741707,
            42.9600347
          ],
          [
            131.8740401,
            42.9599693
          ],
          [
            131.8746999,
            42.9591099
          ],
          [
            131.8747563,
            42.9588732
          ],
          [
            131.8748335,
            42.9585492
          ],
          [
            131.8747468,
            42.9580158
          ],
          [
            131.8745954,
            42.9578896
          ],
          [
            131.8745815,
            42.9576799
          ],
          [
            131.8744191,
            42.9574424
          ],
          [
            131.874113,
            42.9573062
          ],
          [
            131.8736468,
            42.9571224
          ],
          [
            131.8730978,
            42.9569647
          ],
          [
            131.8725937,
            42.9567061
          ],
          [
            131.8723329,
            42.9566031
          ],
          [
            131.8720596,
            42.9566924
          ],
          [
            131.8716517,
            42.9566308
          ],
          [
            131.8713712,
            42.9564616
          ],
          [
            131.8712227,
            42.9561722
          ],
          [
            131.8711554,
            42.9559475
          ],
          [
            131.8712606,
            42.9558798
          ],
          [
            131.8713615,
            42.9556613
          ],
          [
            131.8715886,
            42.9557967
          ],
          [
            131.8717736,
            42.9557967
          ],
          [
            131.8719024,
            42.9556115
          ],
          [
            131.8720052,
            42.9554807
          ],
          [
            131.87208,
            42.9553201
          ],
          [
            131.8722301,
            42.95519
          ],
          [
            131.8724126,
            42.9548353
          ],
          [
            131.8725516,
            42.954818
          ]
        ]
      },
      "id": "way/292028115"
    },
    {
      "type": "Feature",
      "properties": {
        "@id": "way/292028116",
        "natural": "coastline",
        "source": "PGS"
      },
      "geometry": {
        "type": "LineString",
        "coordinates": [
          [
            131.8725516,
            42.954818
          ],
          [
            131.8726165,
            42.954537
          ],
          [
            131.8726525,
            42.9539469
          ],
          [
            131.8725698,
            42.9536332
          ],
          [
            131.8725313,
            42.953487
          ],
          [
            131.8724507,
            42.9533067
          ],
          [
            131.8723161,
            42.9532729
          ],
          [
            131.872188,
            42.9531115
          ],
          [
            131.8719206,
            42.9529971
          ],
          [
            131.8716507,
            42.9529594
          ],
          [
            131.8713653,
            42.9528155
          ],
          [
            131.871091,
            42.9527399
          ],
          [
            131.870655,
            42.9525249
          ],
          [
            131.8706077,
            42.9523783
          ],
          [
            131.8705204,
            42.9522417
          ],
          [
            131.8703101,
            42.9523033
          ],
          [
            131.8699875,
            42.9523669
          ],
          [
            131.8694943,
            42.952211
          ],
          [
            131.869755,
            42.9517893
          ],
          [
            131.8701861,
            42.9518476
          ],
          [
            131.8700915,
            42.9517123
          ],
          [
            131.8702375,
            42.951669
          ],
          [
            131.8704363,
            42.9517277
          ],
          [
            131.8706801,
            42.9518899
          ],
          [
            131.8708653,
            42.951977
          ],
          [
            131.8710299,
            42.9518701
          ],
          [
            131.8723879,
            42.9524312
          ],
          [
            131.8733806,
            42.9520493
          ],
          [
            131.8737341,
            42.9520885
          ],
          [
            131.8736579,
            42.9518977
          ],
          [
            131.8738099,
            42.95181
          ],
          [
            131.87399,
            42.9516799
          ],
          [
            131.8742634,
            42.9514576
          ],
          [
            131.8744083,
            42.95112
          ],
          [
            131.8742256,
            42.9510267
          ],
          [
            131.8741036,
            42.9509035
          ],
          [
            131.8740574,
            42.9504357
          ],
          [
            131.8741953,
            42.9501476
          ],
          [
            131.8743703,
            42.9499255
          ],
          [
            131.8745899,
            42.94961
          ],
          [
            131.8746465,
            42.9494523
          ],
          [
            131.874728,
            42.9493006
          ],
          [
            131.8745453,
            42.9488869
          ],
          [
            131.8744051,
            42.9486086
          ],
          [
            131.8744245,
            42.9482832
          ],
          [
            131.8743796,
            42.9479395
          ],
          [
            131.8741015,
            42.9476361
          ],
          [
            131.873892,
            42.9474628
          ],
          [
            131.8737435,
            42.9472341
          ],
          [
            131.8734493,
            42.9469428
          ],
          [
            131.8730368,
            42.9468567
          ],
          [
            131.8726579,
            42.9467859
          ],
          [
            131.8723754,
            42.9466074
          ],
          [
            131.8719254,
            42.9464572
          ],
          [
            131.8715741,
            42.9464172
          ],
          [
            131.8712191,
            42.9463935
          ],
          [
            131.8709535,
            42.9462508
          ],
          [
            131.8706888,
            42.946085
          ],
          [
            131.8705571,
            42.9460237
          ],
          [
            131.8704717,
            42.9459303
          ],
          [
            131.8703195,
            42.94573
          ],
          [
            131.870308,
            42.9456617
          ],
          [
            131.8703264,
            42.9452642
          ],
          [
            131.8703437,
            42.9450544
          ],
          [
            131.8704094,
            42.9448776
          ],
          [
            131.8704375,
            42.9447473
          ],
          [
            131.8706018,
            42.9445993
          ],
          [
            131.8707871,
            42.9446162
          ],
          [
            131.8708973,
            42.9447273
          ],
          [
            131.8708184,
            42.9448562
          ],
          [
            131.8708641,
            42.9448519
          ],
          [
            131.8709652,
            42.9448083
          ],
          [
            131.871052,
            42.9448027
          ],
          [
            131.8710925,
            42.9449062
          ],
          [
            131.8713197,
            42.9451756
          ],
          [
            131.8714172,
            42.9454476
          ],
          [
            131.8715386,
            42.9455716
          ],
          [
            131.8715917,
            42.9456251
          ],
          [
            131.8717219,
            42.9456376
          ],
          [
            131.8718493,
            42.9455832
          ],
          [
            131.8719417,
            42.9454924
          ],
          [
            131.8719237,
            42.9454468
          ],
          [
            131.8720078,
            42.9453832
          ],
          [
            131.8721182,
            42.9453735
          ],
          [
            131.8723288,
            42.9455355
          ],
          [
            131.8724341,
            42.9455881
          ],
          [
            131.87249,
            42.9454598
          ],
          [
            131.8725537,
            42.9453518
          ],
          [
            131.8726705,
            42.9453682
          ],
          [
            131.8728884,
            42.94541
          ],
          [
            131.8730215,
            42.9454549
          ],
          [
            131.8731384,
            42.9455542
          ],
          [
            131.8733203,
            42.9455695
          ],
          [
            131.8734959,
            42.9454866
          ],
          [
            131.8736623,
            42.9457016
          ],
          [
            131.8738547,
            42.945901
          ],
          [
            131.8739313,
            42.9460561
          ],
          [
            131.8739413,
            42.9462507
          ],
          [
            131.8741911,
            42.9465228
          ],
          [
            131.8743406,
            42.9466302
          ],
          [
            131.8744378,
            42.9468204
          ],
          [
            131.8745281,
            42.9470652
          ],
          [
            131.8747026,
            42.9472925
          ],
          [
            131.8748572,
            42.9473695
          ],
          [
            131.8748958,
            42.9473826
          ],
          [
            131.8750029,
            42.9474457
          ],
          [
            131.8749375,
            42.947535
          ],
          [
            131.8747531,
            42.9475393
          ],
          [
            131.8746639,
            42.9475785
          ],
          [
            131.8746728,
            42.9476612
          ],
          [
            131.8746874,
            42.9477865
          ],
          [
            131.8747035,
            42.9479024
          ],
          [
            131.8747249,
            42.9480084
          ],
          [
            131.8747383,
            42.9481713
          ],
          [
            131.8746793,
            42.9485139
          ],
          [
            131.8747182,
            42.9486013
          ],
          [
            131.8747611,
            42.9486759
          ],
          [
            131.8748215,
            42.9487554
          ],
          [
            131.8748939,
            42.9488369
          ],
          [
            131.8749583,
            42.9489007
          ],
          [
            131.8750937,
            42.9490234
          ],
          [
            131.8752989,
            42.949206
          ]
        ]
      },
      "id": "way/292028116"
    },
    {
      "type": "Feature",
      "properties": {
        "@id": "node/2947709291",
        "name": "мыс Тобизина (Пещерный)",
        "name:zh": "葫芦崴",
        "natural": "cape",
        "source": "knowleadge",
        "website": "https://idilesom.com/prim/places/214",
        "wikidata": "Q26721346",
        "wikipedia": "ru:Мыс Тобизина"
      },
      "geometry": {
        "type": "Point",
        "coordinates": [
          131.8706545,
          42.94492
        ]
      },
      "id": "node/2947709291"
    },
    {
      "type": "Feature",
      "properties": {
        "@id": "node/10254874694",
        "natural": "cliff"
      },
      "geometry": {
        "type": "Point",
        "coordinates": [
          131.8703195,
          42.94573
        ]
      },
      "id": "node/10254874694"
    }
  ]
}